COMMENT,ORIGINATOR,NORAD_CAT_ID,OBJECT_NAME,OBJECT_TYPE,CLASSIFICATION_TYPE,INTLDES,EPOCH,EPOCH_MICROSECONDS,MEAN_MOTION,ECCENTRICITY,INCLINATION,RA_OF_ASC_NODE,ARG_OF_PERICENTER,MEAN_ANOMALY,EPHEMERIS_TYPE,ELEMENT_SET_NO,REV_AT_EPOCH,BSTAR,MEAN_MOTION_DOT,MEAN_MOTION_DDOT,FILE,TLE_LINE0,TLE_LINE1,TLE_LINE2,OBJECT_ID,OBJECT_NUMBER,SEMIMAJOR_AXIS,PERIOD,APOGEE,PERIGEE
"GENERATED VIA SPACETRACK.ORG API","JSPOC","39483","COSMOS 2488","PAYLOAD","U","13076A","2016-01-12 18:58:01","101792","12.42891211","0.0020878","82.4837","22.1068","115.5273","244.7972","0","999","9298","0","1e-07","0","1979616","0 COSMOS 2488","1 39483U 13076A   16012.79029053  .00000010  00000-0  00000+0 0  9999","2 39483  82.4837  22.1068 0020878 115.5273 244.7972 12.42891211 92983","2013-076A","39483","7872.507","115.858","1510.808","1477.936"
"GENERATED VIA SPACETRACK.ORG API","JSPOC","5614","COSMOS 457","PAYLOAD","U","71099A","2016-01-12 18:58:15","609216","13.16029688","0.0024099","74.0371","315.032","253.0418","122.938","0","999","12053","-0.00092094","-3.69e-06","0","1979855","0 COSMOS 457","1  5614U 71099A   16012.79045844 -.00000369 +00000-0 -92094-3 0  9990","2  5614 074.0371 315.0320 0024099 253.0418 122.9380 13.16029688120531","1971-099A","5614","7578.060","109.420","1218.187","1181.662"
"GENERATED VIA SPACETRACK.ORG API","JSPOC","8846","SL-3 R/B","ROCKET BODY","U","76043B","2016-01-12 18:58:23","629728","14.08469785","0.0039653","81.2159","99.7121","45.8953","314.5468","0","999","3740","1.9345e-05","4.6e-07","0","1979855","0 SL-3 R/B","1  8846U 76043B   16012.79055127 +.00000046 +00000-0 +19345-4 0  9998","2  8846 081.2159 099.7121 0039653 045.8953 314.5468 14.08469785037400","1976-043B","8846","7242.749","102.238","893.334","835.895"
"GENERATED VIA SPACETRACK.ORG API","JSPOC","26110","ARIANE 5 R/B","ROCKET BODY","U","00016D","2016-01-12 18:58:28","418880","2.27171542","0.7093877","7.147","11.3637","59.3429","351.877","0","999","13129","-0.0010188","-1.23e-06","0","1979553","0 ARIANE 5 R/B","1 26110U 00016D   16012.79060670 -.00000123  00000-0 -10188-2 0  9990","2 26110   7.1470  11.3637 7093877  59.3429 351.8770  2.27171542131293","2000-016D","26110","24443.640","633.882","35405.523","725.487"
"GENERATED VIA SPACETRACK.ORG API","JSPOC","38088","BREEZE-M R/B","ROCKET BODY","U","12007B","2016-01-12 18:58:30","666144","2.2207074","0.6206704","24.7613","149.4024","151.2484","254.7046","0","999","3169","0","-5.8e-07","0","1979543","0 BREEZE-M R/B","1 38088U 12007B   16012.79063271 -.00000058  00000-0  00000+0 0  9995","2 38088  24.7613 149.4024 6206704 151.2484 254.7046  2.22070740 31697","2012-007B","38088","24816.523","648.442","33841.270","3035.507"
"GENERATED VIA SPACETRACK.ORG API","JSPOC","3432","TITAN 3C TRANSTAGE R/B","ROCKET BODY","U","68081E","2016-01-12 18:58:30","527040","1.01518501","0.0101129","6.6954","316.0153","304.2807","246.9217","0","999","8332","0","-3.43e-06","0","1979855","0 TITAN 3C TRANSTAGE R/B","1  3432U 68081E   16012.79063110 -.00000343 +00000-0 +00000-0 0  9993","2  3432 006.6954 316.0153 0101129 304.2807 246.9217 01.01518501083320","1968-081E","3432","41818.813","1418.460","35863.588","35017.769"
"GENERATED VIA SPACETRACK.ORG API","JSPOC","21152","NADEZHDA 3","PAYLOAD","U","91019A","2016-01-12 18:58:48","843840","13.74196837","0.0040483","82.9262","247.8827","244.2901","160.9543","0","999","24506","4.0315e-05","5.3e-07","0","1979855","0 NADEZHDA 3","1 21152U 91019A   16012.79084310 +.00000053 +00000-0 +40315-4 0  9998","2 21152 082.9262 247.8827 0040483 244.2901 160.9543 13.74196837245065","1991-019A","21152","7362.679","104.788","1014.350","954.737"
"GENERATED VIA SPACETRACK.ORG API","JSPOC","33319","SL-24 R/B","ROCKET BODY","U","08040H","2016-01-12 18:58:59","866752","13.75011814","0.0496719","97.9483","60.0955","17.1069","109.5244","0","999","36986","2.0532e-05","1e-07","0","1979855","0 SL-24 R/B","1 33319U 08040H   16012.79097068 +.00000010 +00000-0 +20532-4 0  9994","2 33319 097.9483 060.0955 0496719 017.1069 109.5244 13.75011814369864","2008-040H","33319","7359.769","104.726","1347.208","616.060"
"GENERATED VIA SPACETRACK.ORG API","JSPOC","40079","O3B FM3","PAYLOAD","U","14038A","2016-01-12 18:59:03","979392","5.00115491","0.0003346","0.038","351.5427","256.991","111.4287","0","999","2269","0","-1.5e-07","0","1979855","0 O3B FM3","1 40079U 14038A   16012.79101828 -.00000015 +00000-0 +00000-0 0  9999","2 40079 000.0380 351.5427 0003346 256.9910 111.4287 05.00115491022697","2014-038A","40079","14444.027","287.933","8070.725","8061.059"
"GENERATED VIA SPACETRACK.ORG API","JSPOC","36122","XIWANG-1 (HOPE-1)","PAYLOAD","U","09072B","2016-01-12 18:59:06","825408","13.16331728","0.0007527","100.1662","54.8443","0.6701","359.4418","0","999","29203","-4.3517e-05","-5.9e-07","0","1979594","0 XIWANG-1 (HOPE-1)","1 36122U 09072B   16012.79105122 -.00000059  00000-0 -43517-4 0  9999","2 36122 100.1662  54.8443 0007527   0.6701 359.4418 13.16331728292030","2009-072B","36122","7576.900","109.394","1204.469","1193.062"
"GENERATED VIA SPACETRACK.ORG API","JSPOC","18129","COSMOS 1861","PAYLOAD","U","87054A","2016-01-12 18:59:07","128672","13.72970976","0.0012987","82.9261","261.3996","97.2266","308.7701","0","999","43091","3.9379e-05","5.2e-07","0","1979855","0 COSMOS 1861","1 18129U 87054A   16012.79105473 +.00000052 +00000-0 +39379-4 0  9993","2 18129 082.9261 261.3996 0012987 097.2266 308.7701 13.72970976430910","1987-054A","18129","7367.061","104.882","998.493","979.358"
"GENERATED VIA SPACETRACK.ORG API","JSPOC","26611","STRV 1D","PAYLOAD","U","00072D","2016-01-12 18:59:09","596256","2.03350682","0.7334504","6.2016","203.3566","199.633","16.4439","0","999","1299","0.0010358","-3.38e-06","0","1979855","0 STRV 1D","1 26611U 00072D   16012.79108329 -.00000338 +00000-0 +10358-2 0  9998","2 26611 006.2016 203.3566 7334504 199.6330 016.4439 02.03350682012992","2000-072D","26611","26317.103","708.136","39241.258","636.678"
"GENERATED VIA SPACETRACK.ORG API","JSPOC","13917","SL-8 R/B","ROCKET BODY","U","83021B","2016-01-12 18:59:30","810912","13.76777844","0.0027178","82.9446","274.1723","269.8269","122.6478","0","999","64758","4.9074e-05","6.3e-07","0","1979855","0 SL-8 R/B","1 13917U 83021B   16012.79132883 +.00000063 +00000-0 +49074-4 0  9993","2 13917 082.9446 274.1723 0027178 269.8269 122.6478 13.76777844647583","1983-021B","13917","7353.474","104.592","995.324","955.354"
"GENERATED VIA SPACETRACK.ORG API","JSPOC","31598","SKYMED 1","PAYLOAD","U","07023A","2016-01-12 18:59:35","753856","14.82155355","0.0001327","97.8787","198.6353","83.6476","276.4901","0","999","46521","-1.5178e-05","-1.73e-06","0","1979610","0 SKYMED 1","1 31598U 07023A   16012.79138604 -.00000173  00000-0 -15178-4 0  9995","2 31598  97.8787 198.6353 0001327  83.6476 276.4901 14.82155355465212","2007-023A","31598","7000.665","97.155","623.459","621.601"
"GENERATED VIA SPACETRACK.ORG API","JSPOC","28890","BEIJING 1 (TSINGHUA)","PAYLOAD","U","05043A","2016-01-12 18:59:45","879936","14.61077223","0.0015373","97.8206","189.6298","0.6417","359.4805","0","999","54428","4.1381e-05","1.6e-06","0","1979592","0 BEIJING 1 (TSINGHUA)","1 28890U 05043A   16012.79150324  .00000160  00000-0  41381-4 0  9998","2 28890  97.8206 189.6298 0015373   0.6417 359.4805 14.61077223544281","2005-043A","28890","7067.834","98.557","700.565","678.834"
"GENERATED VIA SPACETRACK.ORG API","JSPOC","25338","NOAA 15","PAYLOAD","U","98030A","2016-01-12 18:59:47","136192","14.25694191","0.0009619","98.7803","16.653","281.6212","78.3887","0","999","91870","5.2914e-05","8.1e-07","0","1979515","0 NOAA 15","1 25338U 98030A   16012.79151778  .00000081  00000-0  52914-4 0  9990","2 25338  98.7803  16.6530 0009619 281.6212  78.3887 14.25694191918704","1998-030A","25338","7184.296","101.003","813.072","799.251"
"GENERATED VIA SPACETRACK.ORG API","JSPOC","25892","COSMOS 2366","PAYLOAD","U","99045A","2016-01-12 18:59:53","648160","13.74427544","0.0032087","82.9286","68.3661","167.8298","329.8329","0","999","82176","5.1955e-05","6.5e-07","0","1979855","0 COSMOS 2366","1 25892U 99045A   16012.79159315 +.00000065 +00000-0 +51955-4 0  9993","2 25892 082.9286 068.3661 0032087 167.8298 329.8329 13.74427544821765","1999-045A","25892","7361.855","104.770","1007.342","960.098"
"GENERATED VIA SPACETRACK.ORG API","JSPOC","40015","HODOYOSHI 3","PAYLOAD","U","14033F","2016-01-12 19:00:19","558656","14.77928073","0.0037697","97.9298","269.8301","161.1772","199.0842","0","999","8445","7.8627e-05","5.2e-06","0","1979597","0 HODOYOSHI 3","1 40015U 14033F   16012.79189304  .00000520  00000-0  78627-4 0  9993","2 40015  97.9298 269.8301 0037697 161.1772 199.0842 14.77928073 84454","2014-033F","40015","7014.008","97.433","662.314","609.433"
"GENERATED VIA SPACETRACK.ORG API","JSPOC","20433","SL-8 R/B","ROCKET BODY","U","90004B","2016-01-12 19:00:30","554784","14.35902265","0.0040238","74.0346","233.2742","130.7476","274.7997","0","999","36008","5.9411e-05","1.48e-06","0","1979855","0 SL-8 R/B","1 20433U 90004B   16012.79202031 +.00000148 +00000-0 +59411-4 0  9996","2 20433 074.0346 233.2742 0040238 130.7476 274.7997 14.35902265360085","1990-004B","20433","7150.206","100.285","800.842","743.300"
"GENERATED VIA SPACETRACK.ORG API","JSPOC","25756","KITSAT 3","PAYLOAD","U","99029A","2016-01-12 19:00:34","517088","14.53566805","0.001467","98.4207","284.1732","44.3366","315.9002","0","999","88165","4.0974e-05","1.25e-06","0","1979855","0 KITSAT 3","1 25756U 99029A   16012.79206617 +.00000125 +00000-0 +40974-4 0  9998","2 25756 098.4207 284.1732 0014670 044.3366 315.9002 14.53566805881659","1999-029A","25756","7092.159","99.066","724.428","703.620"
